NORAD_CAT_ID,OBJECT_NAME,OBJECT_TYPE,EPOCH,MEAN_MOTION,ECCENTRICITY,INCLINATION,RA_OF_ASC_NODE,ARG_OF_PERICENTER,MEAN_ANOMALY,BSTAR,MEAN_MOTION_DOT,MEAN_MOTION_DDOT,TLE_LINE0,TLE_LINE1,TLE_LINE2,SEMIMAJOR_AXIS,PERIOD,APOGEE,PERIGEE,DECAYED
50165.0,STARLINK-3298,PAYLOAD,2022-12-28 06:37:01,15.08864791,0.0002323,53.2162,99.8641,42.65,317.4672,9.4372e-05,1.215e-05,0.0,0 STARLINK-3298,1 50165U 21125K   22362.27571185  .00001215  00000-0  94372-4 0  9997,2 50165  53.2162  99.8641 0002323  42.6500 317.4672 15.08864791 60265,6917.805,95.436,541.2769999999998,538.063,0.0
50165.0,STARLINK-3298,PAYLOAD,2022-12-29 06:27:50,15.08824899,0.0001785,53.2186,95.3997,33.6654,326.4451,-0.00032179,-5.404e-05,0.0,0 STARLINK-3298,1 50165U 21125K   22363.26933060 -.00005404  00000-0 -32179-3 0  9993,2 50165  53.2186  95.3997 0001785  33.6654 326.4451 15.08824899 57285,6917.927,95.439,541.026,538.557,0.0
50165.0,STARLINK-3298,PAYLOAD,2022-12-29 12:49:24,15.08816303,0.0002331999999999,53.2184,94.2138,23.3617,336.7481,-0.0002581,-4.391e-05,0.0,0 STARLINK-3298,1 50165U 21125K   22363.53431126 -.00004391  00000-0 -25810-3 0  9997,2 50165  53.2184  94.2138 0002332  23.3617 336.7481 15.08816303 57325,6917.953,95.439,541.431,538.205,0.0
50165.0,STARLINK-3298,PAYLOAD,2022-12-29 16:00:08,15.0884571,0.0002343,53.2174,93.6189,28.7015,331.4106,-6.4171e-05,-1.31e-05,0.0,0 STARLINK-3298,1 50165U 21125K   22363.66676881 -.00001310  00000-0 -64171-4 0  9992,2 50165  53.2174  93.6189 0002343  28.7015 331.4106 15.08845710 57348,6917.863,95.437,541.349,538.107,0.0
50165.0,STARLINK-3298,PAYLOAD,2022-12-30 12:40:08,15.08847454,0.0002656,53.2183,89.7546,25.0047,335.1073,0.00023715,3.489e-05,0.0,0 STARLINK-3298,1 50165U 21125K   22364.52788002  .00003489  00000-0  23715-3 0  9992,2 50165  53.2183  89.7546 0002656  25.0047 335.1073 15.08847454 60607,6917.858,95.437,541.56,537.885,0.0
50165.0,STARLINK-3298,PAYLOAD,2022-12-31 04:34:00,15.08835326,0.0002853,53.2184,86.7807,21.3568,338.7543,0.0003677,5.568e-05,0.0,0 STARLINK-3298,1 50165U 21125K   22365.19028446  .00005568  00000-0  36770-3 0  9990,2 50165  53.2184  86.7807 0002853  21.3568 338.7543 15.08835326 57579,6917.895,95.438,541.7330000000002,537.786,0.0
50165.0,STARLINK-3298,PAYLOAD,2022-12-31 12:30:56,15.08839479,0.0002438,53.2173,85.2914,23.915,336.1955,0.00037694,5.716e-05,0.0,0 STARLINK-3298,1 50165U 21125K   22365.52148195  .00005716  00000-0  37694-3 0  9992,2 50165  53.2173  85.2914 0002438  23.9150 336.1955 15.08839479 60750,6917.882,95.438,541.434,538.06,0.0
50165.0,STARLINK-3298,PAYLOAD,2023-01-01 06:00:12,15.08836498,0.0002403,53.2186,82.0218,31.9777,328.1361,-0.00013847,-2.491e-05,0.0,0 STARLINK-3298,1 50165U 21125K   23001.25014000 -.00002491  00000-0 -13847-3 0  9990,2 50165  53.2186  82.0218 0002403  31.9777 328.1361 15.08836498 57736,6917.891,95.438,541.418,538.094,0.0
50165.0,STARLINK-3298,PAYLOAD,2023-01-01 12:21:45,15.08830786,0.0002551,53.2183,80.8299,29.1926,330.9209,-0.00019273,-3.354e-05,0.0,0 STARLINK-3298,1 50165U 21125K   23001.51510521 -.00003354  00000-0 -19273-3 0  9996,2 50165  53.2183  80.8299 0002551  29.1926 330.9209 15.08830786 60906,6917.909000000002,95.438,541.538,538.009,0.0
50165.0,STARLINK-3298,PAYLOAD,2023-01-01 21:54:04,15.08829769,0.0002821,53.2185,79.0457,27.2446,332.8694,-0.00014861,-2.652e-05,0.0,0 STARLINK-3298,1 50165U 21125K   23001.91254703 -.00002652  00000-0 -14861-3 0  9995,2 50165  53.2185  79.0457 0002821  27.2446 332.8694 15.08829769 60964,6917.9119999999975,95.438,541.7280000000002,537.825,0.0
50165.0,STARLINK-3298,PAYLOAD,2023-01-02 13:47:54,15.08845582,0.0002455,53.2187,76.0736,35.1286,324.9867,5.0126e-05,5.1e-06,0.0,0 STARLINK-3298,1 50165U 21125K   23002.57493452  .00000510  00000-0  50126-4 0  9998,2 50165  53.2187  76.0736 0002455  35.1286 324.9867 15.08845582 57934,6917.863,95.437,541.427,538.03,0.0
50165.0,STARLINK-3298,PAYLOAD,2023-01-02 21:44:50,15.08831853,0.0002788999999999,53.2181,74.5877,36.7375,323.3808,5.5234e-06,-2.01e-06,0.0,0 STARLINK-3298,1 50165U 21125K   23002.90614399 -.00000201  00000-0  55234-5 0  9994,2 50165  53.2181  74.5877 0002789  36.7375 323.3808 15.08831853 57982,6917.905,95.438,541.7,537.841,0.0
50165.0,STARLINK-3298,PAYLOAD,2023-01-03 04:06:23,15.08830319,0.0002299999999999,53.2189,73.3981,23.8627,336.2471,0.00018991,2.735e-05,0.0,0 STARLINK-3298,1 50165U 21125K   23003.17110473  .00002735  00000-0  18991-3 0  9998,2 50165  53.2189  73.3981 0002300  23.8627 336.2471 15.08830319 61158,6917.91,95.438,541.366,538.184,0.0
50165.0,STARLINK-3298,PAYLOAD,2023-01-03 12:03:18,15.08841687,0.0002532,53.2176,71.9111,29.9218,330.1918,0.00031341,4.703e-05,0.0,0 STARLINK-3298,1 50165U 21125K   23003.50230128  .00004703  00000-0  31341-3 0  9996,2 50165  53.2176  71.9111 0002532  29.9218 330.1918 15.08841687 58079,6917.875,95.437,541.492,537.989,0.0
50165.0,STARLINK-3298,PAYLOAD,2023-01-04 03:57:10,15.08839244,0.0002624,53.2181,68.9379,31.8337,328.2813,0.00012504,1.702e-05,0.0,0 STARLINK-3298,1 50165U 21125K   23004.16470495  .00001702  00000-0  12504-3 0  9998,2 50165  53.2181  68.9379 0002624  31.8337 328.2813 15.08839244 58172,6917.8830000000025,95.438,541.563,537.932,0.0
50165.0,STARLINK-3298,PAYLOAD,2023-01-04 10:18:42,15.08845004,0.0002628,53.218,67.7485,32.1312,327.9840000000001,0.0002044,2.967e-05,0.0,0 STARLINK-3298,1 50165U 21125K   23004.42966314  .00002967  00000-0  20440-3 0  9999,2 50165  53.2180  67.7485 0002628  32.1312 327.9840 15.08845004 61347,6917.865,95.437,541.548,537.9119999999998,0.0
50165.0,STARLINK-3298,PAYLOAD,2023-01-04 21:26:24,15.08861541,0.0002711,53.2178,65.6668,32.1582,327.9575,0.00045541,6.971e-05,0.0,0 STARLINK-3298,1 50165U 21125K   23004.89333423  .00006971  00000-0  45541-3 0  9997,2 50165  53.2178  65.6668 0002711  32.1582 327.9575 15.08861541 58284,6917.815,95.436,541.555,537.804,0.0
50165.0,STARLINK-3298,PAYLOAD,2023-01-05 13:20:14,15.08869431,0.0002493,53.2173,62.6929,29.3193,330.7939,0.00056083,8.656e-05,0.0,0 STARLINK-3298,1 50165U 21125K   23005.55572300  .00008656  00000-0  56083-3 0  9995,2 50165  53.2173  62.6929 0002493  29.3193 330.7939 15.08869431 61511,6917.79,95.436,541.38,537.931,0.0
50165.0,STARLINK-3298,PAYLOAD,2023-01-06 13:11:02,15.08828568,0.0002579,53.2187,58.233,22.6758,337.4348,-0.00042879,-7.104e-05,0.0,0 STARLINK-3298,1 50165U 21125K   23006.54932986 -.00007104  00000-0 -42879-3 0  9992,2 50165  53.2187  58.2330 0002579  22.6758 337.4348 15.08828568 58533,6917.915,95.438,541.564,537.996,0.0
50165.0,STARLINK-3298,PAYLOAD,2023-01-07 03:29:30,15.08831449,0.0002777,53.2167,55.5571,20.1416,339.9686,9.711e-07,-2.73e-06,0.0,0 STARLINK-3298,1 50165U 21125K   23007.14549604 -.00000273  00000-0  97110-6 0  9990,2 50165  53.2167  55.5571 0002777  20.1416 339.9686 15.08831449 61754,6917.906999999998,95.438,541.693,537.85,0.0
50165.0,STARLINK-3298,PAYLOAD,2023-01-07 11:26:26,15.08837298,0.00027,53.2164,54.0697,20.2868,339.8231,0.00068517,0.00010633,0.0,0 STARLINK-3298,1 50165U 21125K   23007.47669951  .00010633  00000-0  68517-3 0  9990,2 50165  53.2164  54.0697 0002700  20.2868 339.8231 15.08837298 58672,6917.889,95.438,541.621,537.886,0.0
50165.0,STARLINK-3298,PAYLOAD,2023-01-07 19:23:23,15.08820395,0.0002846,53.216,52.5815,28.5159,331.5989,0.00015559,2.187e-05,0.0,0 STARLINK-3298,1 50165U 21125K   23007.80790765  .00002187  00000-0  15559-3 0  9998,2 50165  53.2160  52.5815 0002846  28.5159 331.5989 15.08820395 58723,6917.94,95.439,541.774,537.836,0.0
50165.0,STARLINK-3298,PAYLOAD,2023-01-08 12:52:37,15.08846635,0.0002802,53.2159,49.3116,25.5859,334.5271,0.0010401,0.00016307,0.0,0 STARLINK-3298,1 50165U 21125K   23008.53655025  .00016307  00000-0  10401-2 0  9997,2 50165  53.2159  49.3116 0002802  25.5859 334.5271 15.08846635 58839,6917.86,95.437,541.663,537.7869999999998,0.0
50165.0,STARLINK-3298,PAYLOAD,2023-01-08 19:14:10,15.08854981,0.0002806,53.2159,48.1225,27.175,332.9389,0.0011929,0.00018756,0.0,0 STARLINK-3298,1 50165U 21125K   23008.80150903  .00018756  00000-0  11929-2 0  9998,2 50165  53.2159  48.1225 0002806  27.1750 332.9389 15.08854981 62008,6917.835,95.437,541.641,537.758,0.0
50165.0,STARLINK-3298,PAYLOAD,2023-01-09 12:43:24,15.08852051,0.0002782,53.2157,44.8517,28.6135,331.5009,0.00040122,6.105e-05,0.0,0 STARLINK-3298,1 50165U 21125K   23009.53014486  .00006105  00000-0  40122-3 0  9997,2 50165  53.2157  44.8517 0002782  28.6135 331.5009 15.08852051 62111,6917.844,95.437,541.633,537.784,0.0
50165.0,STARLINK-3298,PAYLOAD,2023-01-10 09:23:25,15.08837134,0.0002842,53.2152,40.9851,24.1269,335.9856,-8.1869e-05,-1.591e-05,0.0,0 STARLINK-3298,1 50165U 21125K   23010.39126621 -.00001591  00000-0 -81869-4 0  9998,2 50165  53.2152  40.9851 0002842  24.1269 335.9856 15.08837134 59119,6917.889,95.438,541.72,537.788,0.0
50165.0,STARLINK-3298,PAYLOAD,2023-01-10 10:58:48,15.08836479,0.0002863,53.2154,40.6877,25.9597,334.1538,-1.3468e-05,-5.03e-06,0.0,0 STARLINK-3298,1 50165U 21125K   23010.45750855 -.00000503  00000-0 -13468-4 0  9999,2 50165  53.2154  40.6877 0002863  25.9597 334.1538 15.08836479 62250,6917.891,95.438,541.737,537.776,0.0
50165.0,STARLINK-3298,PAYLOAD,2023-01-10 18:55:43,15.08845759,0.0002801,53.2154,39.2008,25.3072,334.8057,3.3307e-05,2.42e-06,0.0,0 STARLINK-3298,1 50165U 21125K   23010.78870265  .00000242  00000-0  33307-4 0  9995,2 50165  53.2154  39.2008 0002801  25.3072 334.8057 15.08845759 62304,6917.863,95.437,541.665,537.79,0.0
50165.0,STARLINK-3298,PAYLOAD,2023-01-11 06:03:25,15.0884689,0.0002814,53.2153,37.119,27.3306,332.7834,9.9256e-05,1.292e-05,0.0,0 STARLINK-3298,1 50165U 21125K   23011.25238194  .00001292  00000-0  99256-4 0  9998,2 50165  53.2153  37.1190 0002814  27.3306 332.7834 15.08846890 59244,6917.859,95.437,541.6709999999998,537.778,0.0
